GOES 3                  
1 10953U 78062A   24111.65727008  .00000066  00000+0  00000+0 0  9995
2 10953   8.6860 305.3332 0001437 134.8637 242.1879  0.99359144120712
